NORAD_CAT_ID,OBJECT_NAME,OBJECT_TYPE,EPOCH,MEAN_MOTION,ECCENTRICITY,INCLINATION,RA_OF_ASC_NODE,ARG_OF_PERICENTER,MEAN_ANOMALY,BSTAR,MEAN_MOTION_DOT,MEAN_MOTION_DDOT,TLE_LINE0,TLE_LINE1,TLE_LINE2,SEMIMAJOR_AXIS,PERIOD,APOGEE,PERIGEE,DECAYED
54204.0,STARLINK-5241,PAYLOAD,2023-09-01 11:31:48,15.08844655,0.0001351,53.2174,164.6696,91.5198,268.5949,5.3393e-05,5.62e-06,0.0,0 STARLINK-5241,1 54204U 22141AZ  23244.48041995  .00000562  00000-0  53393-4 0  9990,2 54204  53.2174 164.6696 0001351  91.5198 268.5949 15.08844655 47088,6917.866,95.437,540.666,538.797,0.0
54204.0,STARLINK-5241,PAYLOAD,2023-09-01 19:28:44,15.08789541,0.0001759,53.2172,163.1825,90.9085,269.2109,0.00086648,0.0001351,0.0,0 STARLINK-5241,1 54204U 22141AZ  23244.81163060  .00013510  00000-0  86648-3 0  9990,2 54204  53.2172 163.1825 0001759  90.9085 269.2109 15.08789541 47363,6918.035,95.441,541.117,538.683,0.0
54204.0,STARLINK-5241,PAYLOAD,2023-09-02 01:50:16,15.08849277,0.0001592,53.2166,161.9952,99.6754,260.4418,0.00019663,2.844e-05,0.0,0 STARLINK-5241,1 54204U 22141AZ  23245.07657744  .00002844  00000-0  19663-3 0  9997,2 54204  53.2166 161.9952 0001592  99.6754 260.4418 15.08849277 47401,6917.852,95.437,540.818,538.616,0.0
54204.0,STARLINK-5241,PAYLOAD,2023-09-02 05:01:03,15.08839196,0.0001628,53.2169,161.4,92.9436,267.1743,0.00063454,9.825e-05,0.0,0 STARLINK-5241,1 54204U 22141AZ  23245.20906349  .00009825  00000-0  63454-3 0  9993,2 54204  53.2169 161.4000 0001628  92.9436 267.1743 15.08839196 47422,6917.883,95.438,540.874,538.622,0.0
54204.0,STARLINK-5241,PAYLOAD,2023-09-02 11:22:35,15.08842578,0.0001598,53.2167,160.2082,78.6817,281.4355,9.3933e-05,1.207e-05,0.0,0 STARLINK-5241,1 54204U 22141AZ  23245.47402052  .00001207  00000-0  93933-4 0  9996,2 54204  53.2167 160.2082 0001598  78.6817 281.4355 15.08842578 47232,6917.873,95.437,540.843,538.632,0.0
54204.0,STARLINK-5241,PAYLOAD,2023-09-03 00:05:40,15.08836605,0.0001699,53.2178,157.8304,81.9398,278.1787,-1.4918e-05,-5.25e-06,0.0,0 STARLINK-5241,1 54204U 22141AZ  23246.00394460 -.00000525  00000-0 -14918-4 0  9999,2 54204  53.2178 157.8304 0001699  81.9398 278.1787 15.08836605 47546,6917.891,95.438,540.931,538.58,0.0
54204.0,STARLINK-5241,PAYLOAD,2023-09-03 03:16:26,15.08843376,0.0001571,53.2176,157.239,90.6376,269.4796,0.00010026,1.308e-05,0.0,0 STARLINK-5241,1 54204U 22141AZ  23246.13642151  .00001308  00000-0  10026-3 0  9999,2 54204  53.2176 157.2390 0001571  90.6376 269.4796 15.08843376 47563,6917.87,95.437,540.822,538.648,0.0
54204.0,STARLINK-5241,PAYLOAD,2023-09-03 11:13:22,15.08835608,0.0001789,53.2199,155.7492,86.2308,273.8889,-1.9862e-05,-6.04e-06,0.0,0 STARLINK-5241,1 54204U 22141AZ  23246.46762627 -.00000604  00000-0 -19862-4 0  9994,2 54204  53.2199 155.7492 0001789  86.2308 273.8889 15.08835608 47382,6917.894,95.438,540.996,538.521,0.0
54204.0,STARLINK-5241,PAYLOAD,2023-09-04 11:04:09,15.08842332,0.0001463,53.2166,151.29,91.6741,268.4418,6.122e-05,6.87e-06,0.0,0 STARLINK-5241,1 54204U 22141AZ  23247.46122580  .00000687  00000-0  61220-4 0  9997,2 54204  53.2166 151.2900 0001463  91.6741 268.4418 15.08842332 47538,6917.873,95.437,540.75,538.726,0.0
54204.0,STARLINK-5241,PAYLOAD,2023-09-04 17:25:42,15.08840322,0.0001493,53.2165,150.1008,86.1039,274.0124,0.00017738,2.536e-05,0.0,0 STARLINK-5241,1 54204U 22141AZ  23247.72618793  .00002536  00000-0  17738-3 0  9991,2 54204  53.2165 150.1008 0001493  86.1039 274.0124 15.08840322 47800,6917.879,95.438,540.777,538.712,0.0
54204.0,STARLINK-5241,PAYLOAD,2023-09-05 02:58:01,15.08838606,0.0001538,53.2163,148.3164,96.3272,263.7896,0.00066035,0.00010237,0.0,0 STARLINK-5241,1 54204U 22141AZ  23248.12362956  .00010237  00000-0  66035-3 0  9994,2 54204  53.2163 148.3164 0001538  96.3272 263.7896 15.08838606 47636,6917.885,95.438,540.814,538.686,0.0
54204.0,STARLINK-5241,PAYLOAD,2023-09-06 23:28:48,15.08845681,0.0001518,53.2162,139.9888,97.5511,262.5654,5.0865e-05,5.22e-06,0.0,0 STARLINK-5241,1 54204U 22141AZ  23249.97834089  .00000522  00000-0  50865-4 0  9990,2 54204  53.2162 139.9888 0001518  97.5511 262.5654 15.08845681 48148,6917.863,95.437,540.778,538.678,0.0
54204.0,STARLINK-5241,PAYLOAD,2023-09-07 02:39:34,15.08849675,0.0001483,53.216,139.3929,100.0769,260.039,7.3091e-05,8.76e-06,0.0,0 STARLINK-5241,1 54204U 22141AZ  23250.11081868  .00000876  00000-0  73091-4 0  9995,2 54204  53.2160 139.3929 0001483 100.0769 260.0390 15.08849675 47935,6917.851,95.437,540.742,538.69,0.0
54204.0,STARLINK-5241,PAYLOAD,2023-09-07 18:33:28,15.08872534,0.0001316,53.2179,136.4234,90.8006,269.3137,-0.00039603,-6.591e-05,0.0,0 STARLINK-5241,1 54204U 22141AZ  23250.77324642 -.00006591  00000-0 -39603-3 0  9999,2 54204  53.2179 136.4234 0001316  90.8006 269.3137 15.08872534 48265,6917.781,95.435,540.556,538.736,0.0
54204.0,STARLINK-5241,PAYLOAD,2023-09-07 20:08:42,15.08622095,0.0002495,53.2163,136.1231,103.1795,256.9476,0.0024568,0.00038796,0.0,0 STARLINK-5241,1 54204U 22141AZ  23250.83938315  .00038796  00000-0  24568-2 0  9997,2 54204  53.2163 136.1231 0002495 103.1795 256.9476 15.08622095 48043,6918.547,95.451,542.138,538.685,0.0
54204.0,STARLINK-5241,PAYLOAD,2023-09-08 02:30:21,15.08823738,0.0001377,53.2164,134.9339,103.88,256.2346,0.00033117,4.984e-05,0.0,0 STARLINK-5241,1 54204U 22141AZ  23251.10441821  .00004984  00000-0  33117-3 0  9992,2 54204  53.2164 134.9339 0001377 103.8800 256.2346 15.08823738 48317,6917.93,95.439,540.748,538.842,0.0
54204.0,STARLINK-5241,PAYLOAD,2023-09-08 08:51:55,15.08830857,0.0001322,53.2164,133.7447,84.734,275.3802,2.3534e-05,8.7e-07,0.0,0 STARLINK-5241,1 54204U 22141AZ  23251.36939190  .00000087  00000-0  23534-4 0  9994,2 54204  53.2164 133.7447 0001322  84.7340 275.3802 15.08830857 48353,6917.908,95.438,540.688,538.859,0.0
54204.0,STARLINK-5241,PAYLOAD,2023-09-08 12:02:41,15.08833636,0.0001308,53.2161,133.15,86.6183,273.4958,4.3596e-05,4.06e-06,0.0,0 STARLINK-5241,1 54204U 22141AZ  23251.50186994  .00000406  00000-0  43596-4 0  9991,2 54204  53.2161 133.1500 0001308  86.6183 273.4958 15.08833636 48140,6917.9,95.438,540.67,538.86,0.0
54204.0,STARLINK-5241,PAYLOAD,2023-09-08 18:24:13,15.08839009,0.0001247,53.2162,131.9602,91.8824,268.2311,9.1911e-05,1.175e-05,0.0,0 STARLINK-5241,1 54204U 22141AZ  23251.76682628  .00001175  00000-0  91911-4 0  9992,2 54204  53.2162 131.9602 0001247  91.8824 268.2311 15.08839009 48417,6917.883,95.438,540.611,538.886,0.0
54204.0,STARLINK-5241,PAYLOAD,2023-09-08 21:34:59,15.0884218,0.0001209,53.2164,131.3656,91.8658,268.2473,0.00012333,1.676e-05,0.0,0 STARLINK-5241,1 54204U 22141AZ  23251.89930400  .00001676  00000-0  12333-3 0  9996,2 54204  53.2164 131.3656 0001209  91.8658 268.2473 15.08842180 48205,6917.874,95.437,540.575,538.902,0.0
54204.0,STARLINK-5241,PAYLOAD,2023-09-09 02:21:09,15.08848885,0.0001251,53.2156,130.4734,88.6983,271.4152,0.00024445,3.606e-05,0.0,0 STARLINK-5241,1 54204U 22141AZ  23252.09802161  .00003606  00000-0  24445-3 0  9993,2 54204  53.2156 130.4734 0001251  88.6983 271.4152 15.08848885 48461,6917.853,95.437,540.584,538.853,0.0
54204.0,STARLINK-5241,PAYLOAD,2023-09-09 08:42:42,15.08829667,0.0001353,53.2155,129.2837,86.6836,273.4311,-0.00010359,-1.936e-05,0.0,0 STARLINK-5241,1 54204U 22141AZ  23252.36298946 -.00001936  00000-0 -10359-3 0  9998,2 54204  53.2155 129.2837 0001353  86.6836 273.4311 15.08829667 48509,6917.912,95.438,540.713,538.841,0.0
54204.0,STARLINK-5241,PAYLOAD,2023-09-09 18:15:00,15.08839888,0.0001328,53.2156,127.4997,91.2044,268.91,0.00018702,2.69e-05,0.0,0 STARLINK-5241,1 54204U 22141AZ  23252.76042795  .00002690  00000-0  18702-3 0  9997,2 54204  53.2156 127.4997 0001328  91.2044 268.9100 15.08839888 48569,6917.881,95.438,540.664,538.827,0.0
54204.0,STARLINK-5241,PAYLOAD,2023-09-10 00:36:33,15.08847705,0.0001301,53.2157,126.3103,91.5383,268.5758,0.00063972,9.91e-05,0.0,0 STARLINK-5241,1 54204U 22141AZ  23253.02538706  .00009910  00000-0  63972-3 0  9990,2 54204  53.2157 126.3103 0001301  91.5383 268.5758 15.08847705 48604,6917.857,95.437,540.622,538.822,0.0
54204.0,STARLINK-5241,PAYLOAD,2023-09-10 19:41:11,15.08845506,0.000124,53.2153,122.7423,87.9045,272.2089,0.00067636,0.00010494,0.0,0 STARLINK-5241,1 54204U 22141AZ  23253.82027089  .00010494  00000-0  67636-3 0  9995,2 54204  53.2153 122.7423 0001240  87.9045 272.2089 15.08845506 48720,6917.864,95.437,540.586,538.871,0.0
54204.0,STARLINK-5241,PAYLOAD,2023-09-11 08:24:16,15.08840159,0.0001395,53.2154,120.3634,86.9061,273.2091,0.00029276,4.374e-05,0.0,0 STARLINK-5241,1 54204U 22141AZ  23254.35019199  .00004374  00000-0  29276-3 0  9995,2 54204  53.2154 120.3634 0001395  86.9061 273.2091 15.08840159 48809,6917.88,95.438,540.71,538.78,0.0
54204.0,STARLINK-5241,PAYLOAD,2023-09-11 13:10:26,15.08838735,0.0001342,53.2152,119.4711,87.7656,272.3489,0.00020035,2.902e-05,0.0,0 STARLINK-5241,1 54204U 22141AZ  23254.54891310  .00002902  00000-0  20035-3 0  9998,2 54204  53.2152 119.4711 0001342  87.7656 272.3489 15.08838735 48609,6917.884,95.438,540.678,538.821,0.0
54204.0,STARLINK-5241,PAYLOAD,2023-09-12 00:18:07,15.08848581,0.0001332,53.2154,117.3897,87.1697,272.9447,0.00038566,5.857e-05,0.0,0 STARLINK-5241,1 54204U 22141AZ  23255.01259100  .00005857  00000-0  38566-3 0  9996,2 54204  53.2154 117.3897 0001332  87.1697 272.9447 15.08848581 48678,6917.854,95.437,540.641,538.798,0.0
54204.0,STARLINK-5241,PAYLOAD,2023-09-12 14:36:36,15.08840566,0.0001356,53.2147,114.7143,84.3272,275.7874,0.0001366,1.887e-05,0.0,0 STARLINK-5241,1 54204U 22141AZ  23255.60875414  .00001887  00000-0  13660-3 0  9990,2 54204  53.2147 114.7143 0001356  84.3272 275.7874 15.08840566 48994,6917.879,95.438,540.682,538.806,0.0
54204.0,STARLINK-5241,PAYLOAD,2023-09-12 20:58:08,15.08846594,0.0001374,53.2149,113.5245,85.6863,274.4286,0.00025197,3.725e-05,0.0,0 STARLINK-5241,1 54204U 22141AZ  23255.87371302  .00003725  00000-0  25197-3 0  9997,2 54204  53.2149 113.5245 0001374  85.6863 274.4286 15.08846594 48806,6917.86,95.437,540.676,538.775,0.0
